STARLINK-35155          
1 65935U 25225AB  25299.97303260  .00152406  00000+0  10240-2 0  9997
2 65935  53.1603  70.4744 0001031  61.6538 298.4586 15.74238824  2994
STARLINK-35161          
1 65936U 25225AC  25299.84537677  .00252613  00000+0  16709-2 0  9992
2 65936  53.1595  71.1004 0000804  82.4528 277.6583 15.74285305  2979
STARLINK-35473          
1 65937U 25225AD  25299.97201754  .00269255  00000+0  17772-2 0  9992
2 65937  53.1597  70.4686 0001002  56.0509 304.0606 15.74285201  2995
2025-226A               
1 65938U 25226A   25299.96322608  .00011528  00000+0  67821-3 0  9994
2 65938  97.6664  14.1395 0014498 226.8067 133.1953 15.11727834  2401
2025-226B               
1 65939U 25226B   25299.97936456  .00006468  00000+0  40421-3 0  9992
2 65939  97.6621  14.1105 0020515 230.0635 129.8792 15.09630287  2392
2025-226C               
1 65940U 25226C   25299.96439578  .00011542  00000+0  68109-3 0  9998
2 65940  97.6572  14.1212 0014453 224.6675 135.3391 15.11616174  2394
YOTSUBA-KULOVER         
1 65941U 98067XN  25299.43752335  .00050897  00000+0  81796-3 0  9996
2 65941  51.6338  16.4226 0002354 309.1775  50.9005 15.52498058  2491
BOTAN                   
1 65942U 98067XP  25299.62744068  .00072575  00000+0  11331-2 0  9996
2 65942  51.6339  15.4407 0004191 334.4540  25.6243 15.53142007  2523
E-KAGAKU-1              
1 65943U 98067XQ  25299.43713291  .00049272  00000+0  79166-3 0  9999
2 65943  51.6337  16.4198 0004085 323.6954  36.3758 15.52513453  2493
2025-226D               
1 65944U 25226D   25290.94606692 -.00000071  00000+0  00000+0 0  9992
2 65944  97.6632   5.1263 0019022 287.2735  72.6416 15.16526485  1020
SHIYAN-31               
1 65945U 25227A   25299.95445998  .00009560  00000+0  43940-3 0  9999
2 65945  80.0035  84.0150 0011324 223.2796 136.7542 15.20221430  2063
CZ-2D R/B               
1 65946U 25227B   25299.95818095  .00011638  00000+0  43163-3 0  9998
2 65946  80.1542  84.2708 0021503 350.8849   9.1988 15.27283851  2075
KUIPER-00101            
1 65947U 25228A   25299.90844783  .00018297  00000+0  54768-3 0  9999
2 65947  51.8801 246.1684 0005889 180.9826 179.1149 15.34572695  3227
KUIPER-00113            
1 65948U 25228B   25299.90630024  .00032690  00000+0  95974-3 0  9998
2 65948  51.8806 246.1574 0006405 177.9412 182.1601 15.34835437  3226
KUIPER-00117            
1 65949U 25228C   25299.90664618  .00016545  00000+0  49317-3 0  9996
2 65949  51.8804 246.1596 0006127 177.3575 182.7444 15.34778399  3228
KUIPER-00121            
1 65950U 25228D   25299.91175814  .00023365  00000+0  70396-3 0  9993
2 65950  51.8813 246.1957 0005682 195.8138 164.2671 15.34204939  3227
KUIPER-00122            
1 65951U 25228E   25299.91272461  .00019128  00000+0  58123-3 0  9996
2 65951  51.8808 246.1963 0006728 199.4056 160.6674 15.34059385  3226
KUIPER-00123            
1 65952U 25228F   25299.91185142  .00033622  00000+0  10088-2 0  9998
2 65952  51.8798 246.1900 0005458 190.8810 169.2059 15.34140394  3221
KUIPER-00124            
1 65953U 25228G   25299.91313694  .00017436  00000+0  53170-3 0  9999
2 65953  51.8810 246.2029 0005508 205.4719 154.5995 15.34019201  3225
KUIPER-00125            
1 65954U 25228H   25299.90964293  .00017656  00000+0  53131-3 0  9997
2 65954  51.8799 246.1755 0005679 186.5476 173.5436 15.34430803  3221
KUIPER-00126            
1 65955U 25228J   25299.91228031  .00018195  00000+0  55179-3 0  9995
2 65955  51.8804 246.1956 0006022 200.5363 159.5382 15.34161148  3224
KUIPER-00127            
1 65956U 25228K   25299.90692736  .00030160  00000+0  88893-3 0  9997
2 65956  51.8806 246.1616 0006059 178.8815 181.2185 15.34754405  3226
KUIPER-00128            
1 65957U 25228L   25299.90879335  .00019241  00000+0  57600-3 0  9999
2 65957  51.8809 246.1760 0005813 182.2448 177.8513 15.34532639  3227
KUIPER-00129            
1 65958U 25228M   25299.90841171  .00028941  00000+0  85911-3 0  9990
2 65958  51.8806 246.1728 0006138 177.1229 182.9793 15.34551335  3221
KUIPER-00130            
1 65959U 25228N   25299.91054063  .00032274  00000+0  96201-3 0  9996
2 65959  51.8801 246.1817 0005279 192.8275 167.2577 15.34368320  3222
KUIPER-00134            
1 65960U 25228P   25299.91137971  .00029106  00000+0  87224-3 0  9993
2 65960  51.8798 246.1868 0005202 197.3983 162.6825 15.34252898  3224
KUIPER-00135            
1 65961U 25228Q   25299.91097294  .00019266  00000+0  58217-3 0  9993
2 65961  51.8813 246.1912 0005137 184.8456 175.2481 15.34238275  3227
KUIPER-00136            
1 65962U 25228R   25299.90751795  .00018913  00000+0  56386-3 0  9999
2 65962  51.8806 246.1673 0005814 180.8320 179.2657 15.34674551  3222
KUIPER-00137            
1 65963U 25228S   25299.91061065  .00016818  00000+0  50837-3 0  9992
2 65963  51.8811 246.1885 0005319 192.0385 168.0474 15.34327824  3221
KUIPER-00138            
1 65964U 25228T   25299.91202473  .00017816  00000+0  54114-3 0  9994
2 65964  51.8802 246.1926 0005851 203.9701 156.1013 15.34128875  3225
KUIPER-00140            
1 65965U 25228U   25299.91271219  .00029866  00000+0  89876-3 0  9990
2 65965  51.8807 246.1994 0005646 204.9562 155.1151 15.34104998  3226
KUIPER-00141            
1 65966U 25228V   25299.90910378  .00018223  00000+0  54686-3 0  9992
2 65966  51.8801 246.1719 0005815 183.4871 176.6075 15.34494329  3221
KUIPER-00146            
1 65967U 25228W   25299.90939291  .00028094  00000+0  83659-3 0  9997
2 65967  51.8810 246.1800 0006020 184.9160 175.1767 15.34468125  3226
KUIPER-00149            
1 65968U 25228X   25299.90782839  .00018499  00000+0  55247-3 0  9992
2 65968  51.8803 246.1651 0005668 181.7071 178.3897 15.34636869  3227
KUIPER-00154            
1 65969U 25228Y   25299.90724493  .00018271  00000+0  54461-3 0  9990
2 65969  51.8805 246.1615 0005901 179.4867 180.6126 15.34705466  3228
KUIPER-00157            
1 65970U 25228Z   25299.91147021  .00021242  00000+0  64003-3 0  9994
2 65970  51.8813 246.1940 0005847 197.1098 162.9691 15.34261519  3228
STRIX-5                 
1 65971U 25229A   25297.29131742  .00007332  00000+0  55984-3 0  9990
2 65971  41.9260 152.9598 0040776 308.0764  51.6386 15.01617556  1471
ELECTRON R/B            
1 65972U 25229B   25299.95188080  .00005503  00000+0  42376-3 0  9992
2 65972  41.9264 138.2700 0040376 325.0374  34.7802 15.01646013  1857
ELECTRON KICK STAGE R/B 
1 65973U 25229C   25299.94511790  .00006695  00000+0  50060-3 0  9992
2 65973  41.9821 138.2926 0041394 325.1891  34.6229 15.02495829  1842
HULIANWANG DIGUI 12A    
1 65995U 25231A   25298.92228948  .00000117  00000+0  16617-3 0  9999
2 65995  50.0013 317.5889 0006545 288.5047  71.5146 14.04903841  1391
HULIANWANG DIGUI 12B    
1 65996U 25231B   25299.99282338  .00000095  00000+0  15506-3 0  9992
2 65996  49.9999 313.2529 0008981 296.8817  63.1169 14.03876008  1541
HULIANWANG DIGUI 12C    
1 65997U 25231C   25298.92121315  .00000115  00000+0  16545-3 0  9999
2 65997  49.9977 317.5788 0007636 292.5953  67.4143 14.04741689  1391
HULIANWANG DIGUI 12D    
1 65998U 25231D   25298.77853280  .00000113  00000+0  16289-3 0  9999
2 65998  50.0005 318.1615 0006578 297.0411  62.9822 14.05303129  1372
HULIANWANG DIGUI 12E    
1 65999U 25231E   25298.99142514  .00000086  00000+0  14526-3 0  9996
2 65999  50.0025 317.2904 0008184 307.0262  52.9894 14.05675308  1400
HULIANWANG DIGUI 12F    
1 66000U 25231F   25298.99035399  .00000098  00000+0  15228-3 0  9995
2 66000  50.0066 317.2912 0005664 302.6769  57.3590 14.05826000  1400
HULIANWANG DIGUI 12G    
1 66001U 25231G   25298.98965537  .00000111  00000+0  15983-3 0  9995
2 66001  50.0034 317.2818 0006933 314.4365  45.5972 14.05927778  1401
HULIANWANG DIGUI 12H    
1 66002U 25231H   25299.77183272  .00000469  00000+0  38237-3 0  9995
2 66002  50.0060 314.0935 0007446 309.3414  50.6831 14.05117311  1511
HULIANWANG DIGUI 12J    
1 66003U 25231J   25299.98325150  .00000131  00000+0  17147-3 0  9995
2 66003  50.0045 313.2095 0005650 308.9667  51.0735 14.06123893  1547
CZ-8A R/B               
1 66004U 25231K   25299.80170436 -.00000051  00000+0  40925-4 0  9995
2 66004  50.0039 312.1815 0116700 121.8784 239.3550 14.30030850  1543
STARLINK-34849          
1 66005U 25232A   25299.91670139 -.01484578  00000+0 -76236-2 0  9998
2 66005  53.1554  10.2257 0000847  69.3995 342.2715 15.83213767  2020
STARLINK-35336          
1 66006U 25232B   25299.91670139 -.01512686  00000+0 -77987-2 0  9995
2 66006  53.1551  10.2197 0001034  55.5121 358.9187 15.83181403  2037
STARLINK-35196          
1 66007U 25232C   25299.91670139 -.01519917  00000+0 -78404-2 0  9995
2 66007  53.1553  10.2155 0001007  62.1475 354.4069 15.83183531  2034
STARLINK-35236          
1 66008U 25232D   25299.91670139 -.01532342  00000+0 -79189-2 0  9994
2 66008  53.1547  10.2097 0000930  76.5968 342.3702 15.83169703  2038
STARLINK-35276          
1 66009U 25232E   25299.91670139 -.01545545  00000+0 -80080-2 0  9996
2 66009  53.1547  10.2046 0000786  83.4335 338.1300 15.83141539  2020
STARLINK-35297          
1 66010U 25232F   25299.91670139 -.01549696  00000+0 -80349-2 0  9997
2 66010  53.1549  10.2000 0000801  74.4023 349.3920 15.83135167  2039
STARLINK-35256          
1 66011U 25232G   25299.91670139 -.01582817  00000+0 -82403-2 0  9993
2 66011  53.1550  10.1814 0001079  57.5281  15.2634 15.83109241  2035
STARLINK-35293          
1 66012U 25232H   25299.91670139 -.01561999  00000+0 -81122-2 0  9999
2 66012  53.1547  10.1951 0000814  79.1938 346.9646 15.83123447  2030
STARLINK-35307          
1 66013U 25232J   25299.91670139 -.01564862  00000+0 -81341-2 0  9995
2 66013  53.1550  10.1904 0000934  71.5408 356.9043 15.83109516  1968
STARLINK-35395          
1 66014U 25232K   25299.91670139 -.01571976  00000+0 -81719-2 0  9999
2 66014  53.1548  10.1860 0000838  76.0180 354.4282 15.83121874  2024
